{
  "type": "FeatureCollection",
  "features": [
    {
      "type": "Feature",
      "properties": {
        "norad_id": 37781,
        "name": "HAIYANG-2A",
        "group": "resource",
        "lat": -44.192485225130866,
        "lon": 11.554025982919665,
        "alt_km": 974.9704895111781,
        "timestamp": "2025-12-27T15:27:10.800130+00:00",
        "meta_object_name": "HAIYANG-2A",
        "meta_object_id": "2011-043A",
        "meta_epoch": "2025-12-27T06:57:46.588320",
        "meta_mean_motion": 13.7883598,
        "meta_eccentricity": 0.00015552,
        "meta_inclination": 99.3384,
        "meta_ra_of_asc_node": 2.0005,
        "meta_arg_of_pericenter": 64.0444,
        "meta_mean_anomaly": 296.0868,
        "meta_ephemeris_type": 0,
        "meta_classification_type": "U",
        "meta_norad_cat_id": 37781,
        "meta_element_set_no": 999,
        "meta_rev_at_epoch": 72299,
        "meta_bstar": -6.844408e-06,
        "meta_mean_motion_dot": -5.1e-07,
        "meta_mean_motion_ddot": 0,
        "tle_line1": "1 37781U 11043A   25361.29012255 -.00000051  00000+0 -68444-5 0  9996",
        "tle_line2": "2 37781  99.3384   2.0005 0001555  64.0444 296.0868 13.78835980722999"
      },
      "geometry": {
        "type": "Point",
        "coordinates": [
          11.554025982919665,
          -44.192485225130866
        ]
      }
    },
    {
      "type": "Feature",
      "properties": {
        "norad_id": 37791,
        "name": "RASAT",
        "group": "resource",
        "lat": 15.874678220950514,
        "lon": -87.00985283437075,
        "alt_km": 680.4619978969058,
        "timestamp": "2025-12-27T15:27:10.800141+00:00",
        "meta_object_name": "RASAT",
        "meta_object_id": "2011-044D",
        "meta_epoch": "2025-12-27T06:56:57.090624",
        "meta_mean_motion": 14.67928891,
        "meta_eccentricity": 0.00211473,
        "meta_inclination": 98.0637,
        "meta_ra_of_asc_node": 90.3306,
        "meta_arg_of_pericenter": 20.9113,
        "meta_mean_anomaly": 71.4712,
        "meta_ephemeris_type": 0,
        "meta_classification_type": "U",
        "meta_norad_cat_id": 37791,
        "meta_element_set_no": 999,
        "meta_rev_at_epoch": 76796,
        "meta_bstar": 8.9454836e-05,
        "meta_mean_motion_dot": 4.64e-06,
        "meta_mean_motion_ddot": 0,
        "tle_line1": "1 37791U 11044D   25361.28954966  .00000464  00000+0  89455-4 0  9991",
        "tle_line2": "2 37791  98.0637  90.3306 0021147  20.9113  71.4712 14.67928891767966"
      },
      "geometry": {
        "type": "Point",
        "coordinates": [
          -87.00985283437075,
          15.874678220950514
        ]
      }
    },
    {
      "type": "Feature",
      "properties": {
        "norad_id": 37841,
        "name": "SRMSAT",
        "group": "resource",
        "lat": 4.340125051268887,
        "lon": 29.814221231109205,
        "alt_km": 853.2816977667098,
        "timestamp": "2025-12-27T15:27:10.800152+00:00",
        "meta_object_name": "SRMSAT",
        "meta_object_id": "2011-058D",
        "meta_epoch": "2025-12-27T03:47:53.066112",
        "meta_mean_motion": 14.11516416,
        "meta_eccentricity": 0.00119792,
        "meta_inclination": 19.9733,
        "meta_ra_of_asc_node": 20.69,
        "meta_arg_of_pericenter": 110.9492,
        "meta_mean_anomaly": 309.0242,
        "meta_ephemeris_type": 0,
        "meta_classification_type": "U",
        "meta_norad_cat_id": 37841,
        "meta_element_set_no": 999,
        "meta_rev_at_epoch": 73348,
        "meta_bstar": 0.0001065228,
        "meta_mean_motion_dot": 4.61e-06,
        "meta_mean_motion_ddot": 0,
        "tle_line1": "1 37841U 11058D   25361.15825308  .00000461  00000+0  10652-3 0  9994",
        "tle_line2": "2 37841  19.9733  20.6900 0011979 110.9492 309.0242 14.11516416733482"
      },
      "geometry": {
        "type": "Point",
        "coordinates": [
          29.814221231109205,
          4.340125051268887
        ]
      }
    },
    {
      "type": "Feature",
      "properties": {
        "norad_id": 38012,
        "name": "PLEIADES 1A",
        "group": "resource",
        "lat": 1.916118741677598,
        "lon": -105.54316679087339,
        "alt_km": 700.6470055591662,
        "timestamp": "2025-12-27T15:27:10.800162+00:00",
        "meta_object_name": "PLEIADES 1A",
        "meta_object_id": "2011-076F",
        "meta_epoch": "2025-12-27T08:23:19.258080",
        "meta_mean_motion": 14.58575272,
        "meta_eccentricity": 0.00010451,
        "meta_inclination": 98.1802,
        "meta_ra_of_asc_node": 73.8914,
        "meta_arg_of_pericenter": 77.9496,
        "meta_mean_anomaly": 355.3236,
        "meta_ephemeris_type": 0,
        "meta_classification_type": "U",
        "meta_norad_cat_id": 38012,
        "meta_element_set_no": 999,
        "meta_rev_at_epoch": 74694,
        "meta_bstar": 0.00013088602,
        "meta_mean_motion_dot": 5.63e-06,
        "meta_mean_motion_ddot": 0,
        "tle_line1": "1 38012U 11076F   25361.34952845  .00000563  00000+0  13089-3 0  9993",
        "tle_line2": "2 38012  98.1802  73.8914 0001045  77.9496 355.3236 14.58575272746941"
      },
      "geometry": {
        "type": "Point",
        "coordinates": [
          -105.54316679087339,
          1.916118741677598
        ]
      }
    },
    {
      "type": "Feature",
      "properties": {
        "norad_id": 38038,
        "name": "ZIYUAN 1-02C (ZY 1-02C)",
        "group": "resource",
        "lat": 63.662190573852115,
        "lon": 49.947918895757674,
        "alt_km": 754.3243434750948,
        "timestamp": "2025-12-27T15:27:10.800173+00:00",
        "meta_object_name": "ZIYUAN 1-02C (ZY 1-02C)",
        "meta_object_id": "2011-079A",
        "meta_epoch": "2025-12-27T07:12:17.890848",
        "meta_mean_motion": 14.38028569,
        "meta_eccentricity": 0.00075873,
        "meta_inclination": 98.431,
        "meta_ra_of_asc_node": 67.0441,
        "meta_arg_of_pericenter": 100.5988,
        "meta_mean_anomaly": 346.346,
        "meta_ephemeris_type": 0,
        "meta_classification_type": "U",
        "meta_norad_cat_id": 38038,
        "meta_element_set_no": 999,
        "meta_rev_at_epoch": 73450,
        "meta_bstar": 0.00020635077,
        "meta_mean_motion_dot": 5.81e-06,
        "meta_mean_motion_ddot": 0,
        "tle_line1": "1 38038U 11079A   25361.30020707  .00000581  00000+0  20635-3 0  9998",
        "tle_line2": "2 38038  98.4310  67.0441 0007587 100.5988 346.3460 14.38028569734500"
      },
      "geometry": {
        "type": "Point",
        "coordinates": [
          49.947918895757674,
          63.662190573852115
        ]
      }
    },
    {
      "type": "Feature",
      "properties": {
        "norad_id": 38338,
        "name": "ARIRANG-3 (KOMPSAT-3)",
        "group": "resource",
        "lat": -63.316641409725996,
        "lon": 119.38881978137836,
        "alt_km": 692.2633448585675,
        "timestamp": "2025-12-27T15:27:10.800183+00:00",
        "meta_object_name": "ARIRANG-3 (KOMPSAT-3)",
        "meta_object_id": "2012-025B",
        "meta_epoch": "2025-12-27T07:45:57.299904",
        "meta_mean_motion": 14.61732043,
        "meta_eccentricity": 0.00046368,
        "meta_inclination": 98.3343,
        "meta_ra_of_asc_node": 316.0245,
        "meta_arg_of_pericenter": 285.5514,
        "meta_mean_anomaly": 74.5175,
        "meta_ephemeris_type": 0,
        "meta_classification_type": "U",
        "meta_norad_cat_id": 38338,
        "meta_element_set_no": 999,
        "meta_rev_at_epoch": 72623,
        "meta_bstar": 0.0001509273,
        "meta_mean_motion_dot": 7.04e-06,
        "meta_mean_motion_ddot": 0,
        "tle_line1": "1 38338U 12025B   25361.32357986  .00000704  00000+0  15093-3 0  9996",
        "tle_line2": "2 38338  98.3343 316.0245 0004636 285.5514  74.5175 14.61732043726237"
      },
      "geometry": {
        "type": "Point",
        "coordinates": [
          119.38881978137836,
          -63.316641409725996
        ]
      }
    },
    {
      "type": "Feature",
      "properties": {
        "norad_id": 38709,
        "name": "EXACTVIEW-1 (ADS-1B)",
        "group": "resource",
        "lat": 68.84562434436815,
        "lon": 86.2736048425246,
        "alt_km": 805.8376007394045,
        "timestamp": "2025-12-27T15:27:10.800194+00:00",
        "meta_object_name": "EXACTVIEW-1 (ADS-1B)",
        "meta_object_id": "2012-039C",
        "meta_epoch": "2025-12-27T06:41:45.184416",
        "meta_mean_motion": 14.24913949,
        "meta_eccentricity": 0.00100468,
        "meta_inclination": 98.964,
        "meta_ra_of_asc_node": 109.9743,
        "meta_arg_of_pericenter": 310.2244,
        "meta_mean_anomaly": 49.8055,
        "meta_ephemeris_type": 0,
        "meta_classification_type": "U",
        "meta_norad_cat_id": 38709,
        "meta_element_set_no": 999,
        "meta_rev_at_epoch": 69822,
        "meta_bstar": 9.8874107e-05,
        "meta_mean_motion_dot": 1.85e-06,
        "meta_mean_motion_ddot": 0,
        "tle_line1": "1 38709U 12039C   25361.27899519  .00000185  00000+0  98874-4 0  9992",
        "tle_line2": "2 38709  98.9640 109.9743 0010046 310.2244  49.8055 14.24913949698229"
      },
      "geometry": {
        "type": "Point",
        "coordinates": [
          86.2736048425246,
          68.84562434436815
        ]
      }
    }
  ]
}